NUSAT-49 (KLARA DAN VO*)
1 60500U 24149AJ  26068.79810190  .00012912  00000+0  43568-3 0  9991
2 60500  97.3807 150.7380 0001132 286.7761  73.3356 15.30828857 86935
STARLINK-32533          
1 61706U 24195V   26068.53767853 -.00000734  00000+0 -12656-4 0  9996
2 61706  53.1609 155.6757 0000976  77.7139 282.3971 15.30193459 77161
